{
 "type": "FeatureCollection",
 "properties": {
  "이름": "대전 지역 고개 — 좌표가 선 것",
  "설명": "대전향토문화연구회 고개 조사. 좌표는 미군 AMS 1:50,000(저본 1919) 그리드를 환산한 것으로 ±1 km 로 읽으십시오. 자세한 것은 research/대전-고개-대조표.md 의 3.1 과 14.5-3.",
  "만든날": "2026-10-01"
 },
 "features": [
  {
   "type": "Feature",
   "geometry": {
    "type": "Point",
    "coordinates": [
     127.493,
     36.255
    ]
   },
   "properties": {
    "표제": "닭재",
    "한자": "雞峙 / 雞峴",
    "급": "B",
    "도엽자리": "AMS Taejon 1048/1485; 해동 회덕 (0.87, 0.64); 대동여지도 16-04 (0.75, 0.21)",
    "비고": "동구 삼괴동, 계현산성 아래"
   }
  },
  {
   "type": "Feature",
   "geometry": {
    "type": "Point",
    "coordinates": [
     127.348,
     36.162
    ]
   },
   "properties": {
    "표제": "방고개",
    "한자": "方古介 / 方古峙 / 方峴",
    "급": "B",
    "도엽자리": "AMS Kumsan 1034/1474; 해동 진산 (0.17, 0.47); 1872 진산 (0.64, 0.41)",
    "비고": "금산군 복수면 방현리"
   }
  },
  {
   "type": "Feature",
   "geometry": {
    "type": "Point",
    "coordinates": [
     127.389,
     36.156
    ]
   },
   "properties": {
    "표제": "(미상)",
    "한자": "炭峙",
    "급": "B",
    "도엽자리": "AMS Kumsan 1038/1473; 1872 진산 〔기문 고적 조〕",
    "비고": "금산군 진산면·복수면 사이"
   }
  },
  {
   "type": "Feature",
   "geometry": {
    "type": "Point",
    "coordinates": [
     127.487,
     36.227
    ]
   },
   "properties": {
    "표제": "마달령",
    "한자": "馬達峙 / 馬達嶺",
    "급": "B",
    "도엽자리": "AMS Taejon 1048/1481; 1872 옥천 (0.21, 0.165); 대동여지도 16-04 (0.80, 0.26)",
    "비고": "동구 삼괴동 ↔ 옥천 군서·군북면, 표고 315"
   }
  },
  {
   "type": "Feature",
   "geometry": {
    "type": "Point",
    "coordinates": [
     127.479,
     36.158
    ]
   },
   "properties": {
    "표제": "(미상) '섶재'?",
    "한자": "薪峙",
    "급": "B",
    "도엽자리": "AMS Kumsan 1047/1473; 1872 금산 (0.39, 0.30)",
    "비고": "금산군 추부면 상·중·하신리 일대"
   }
  },
  {
   "type": "Feature",
   "geometry": {
    "type": "Point",
    "coordinates": [
     127.479,
     36.152
    ]
   },
   "properties": {
    "표제": "(미상)",
    "한자": "海藍峙",
    "급": "B",
    "도엽자리": "AMS Kumsan 1047/1472",
    "비고": "금산군 추부면 동부, 표고 280"
   }
  },
  {
   "type": "Feature",
   "geometry": {
    "type": "Point",
    "coordinates": [
     127.429,
     36.118
    ]
   },
   "properties": {
    "표제": "(미상)",
    "한자": "月峰峙",
    "급": "B",
    "도엽자리": "AMS Kumsan 1042/1468",
    "비고": "금산군 금성면, 月峯(498) 북쪽, 표고 336"
   }
  },
  {
   "type": "Feature",
   "geometry": {
    "type": "Point",
    "coordinates": [
     127.439,
     36.135
    ]
   },
   "properties": {
    "표제": "(미상)",
    "한자": "松峴〔금산〕",
    "급": "B",
    "도엽자리": "AMS Kumsan 1043/1470",
    "비고": "금산군 금성면·남이면 쪽, 표고 247"
   }
  },
  {
   "type": "Feature",
   "geometry": {
    "type": "Point",
    "coordinates": [
     127.467,
     36.145
    ]
   },
   "properties": {
    "표제": "(미상)",
    "한자": "石峴",
    "급": "B",
    "도엽자리": "AMS Kumsan 1046/1472; 1872 금산 〔石峴里〕",
    "비고": "금산군 추부면, 城底 동쪽"
   }
  },
  {
   "type": "Feature",
   "geometry": {
    "type": "Point",
    "coordinates": [
     127.455,
     36.273
    ]
   },
   "properties": {
    "표제": "지프재",
    "한자": "琵琶嶺",
    "급": "B",
    "도엽자리": "AMS Taejon 1045/1487",
    "비고": "감암산 북쪽 — 15장의 「대별동 ↔ 소호동」과 2 km 어긋납니다"
   }
  },
  {
   "type": "Feature",
   "geometry": {
    "type": "Point",
    "coordinates": [
     127.308,
     36.192
    ]
   },
   "properties": {
    "표제": "(미상)",
    "한자": "望峙",
    "급": "B",
    "도엽자리": "AMS Taejon 1030/1477",
    "비고": "大洞里·晩木里 사이"
   }
  },
  {
   "type": "Feature",
   "geometry": {
    "type": "Point",
    "coordinates": [
     127.439,
     36.202
    ]
   },
   "properties": {
    "표제": "먹티",
    "한자": "墨峙",
    "급": "B",
    "도엽자리": "AMS Taejon 1043/1478",
    "비고": "동구 하소동, 표고 239 — 15장의 「먹티」와 합치"
   }
  },
  {
   "type": "Feature",
   "geometry": {
    "type": "Point",
    "coordinates": [
     127.384,
     36.181
    ]
   },
   "properties": {
    "표제": "(미상)",
    "한자": "介峙",
    "급": "B",
    "도엽자리": "AMS Taejon 1038/1476",
    "비고": "三直川·鶴坪 부근"
   }
  },
  {
   "type": "Feature",
   "geometry": {
    "type": "Point",
    "coordinates": [
     127.279,
     36.177
    ]
   },
   "properties": {
    "표제": "(미상)",
    "한자": "〔?〕峙",
    "급": "B",
    "도엽자리": "AMS Taejon 1027/1475",
    "비고": "龍岩 서쪽. 로마자 Chuch'i"
   }
  },
  {
   "type": "Feature",
   "geometry": {
    "type": "Point",
    "coordinates": [
     127.258,
     36.172
    ]
   },
   "properties": {
    "표제": "(미상)",
    "한자": "□峙〔P…〕",
    "급": "B",
    "도엽자리": "AMS Taejon 1025/1475",
    "비고": "五作谷 남쪽, Taejon 도엽 서남 모서리, 표고 273"
   }
  },
  {
   "type": "Feature",
   "geometry": {
    "type": "Point",
    "coordinates": [
     127.343,
     36.121
    ]
   },
   "properties": {
    "표제": "(미상)",
    "한자": "梨峙",
    "급": "B",
    "도엽자리": "AMS Kumsan 1034/1469; 해동 진산 (0.03, 0.62)",
    "비고": "진산면 ↔ 완주 운주면, 大芚山 동쪽, 표고 374"
   }
  }
 ]
}
